start=new Date('2023-02-23T00:00:00.000Z').valueOf();
sats=[{"ELEMENT_SET_NO":"999","SITE":"AFETR","RCS_SIZE":"LARGE","MEAN_MOTION_DOT":"-0.00004662","PERIAPSIS":"546.395","MEAN_ANOMALY":"258.3006","TLE_LINE2":"2 47777  53.0519 159.1455 0001340 101.8133 258.3006 15.06364318110296","EPOCH":"2023-02-22T16:15:46.645344","TIME_SYSTEM":"UTC","OBJECT_TYPE":"PAYLOAD","COUNTRY_CODE":"US","APOAPSIS":"548.251","FILE":"3825529","RA_OF_ASC_NODE":"159.1455","BSTAR":"-0.00029454000000","ECCENTRICITY":"0.00013400","EPHEMERIS_TYPE":"0","NORAD_CAT_ID":"47777","REV_AT_EPOCH":"11029","LAUNCH_DATE":"2021-03-04","REF_FRAME":"TEME","SEMIMAJOR_AXIS":"6925.458","CLASSIFICATION_TYPE":"U","GP_ID":"226473065","MEAN_MOTION":"15.06364318","OBJECT_NAME":"STARLINK-2210","PERIOD":"95.594","CENTER_NAME":"EARTH","INCLINATION":"53.0519","TLE_LINE1":"1 47777U 21017BH  23053.67762321 -.00004662  00000-0 -29454-3 0  9997","ARG_OF_PERICENTER":"101.8133","DECAY_DATE":null,"MEAN_MOTION_DDOT":"0.0000000000000","OBJECT_ID":"2021-017BH","MEAN_ELEMENT_THEORY":"SGP4"},{"MEAN_ANOMALY":"269.6582","PERIAPSIS":"546.473","SITE":"AFETR","RCS_SIZE":"LARGE","MEAN_MOTION_DOT":"0.00000844","ELEMENT_SET_NO":"999","TIME_SYSTEM":"UTC","EPOCH":"2023-02-22T18:39:05.666688","TLE_LINE2":"2 47778  53.0531 158.7003 0001207  90.4545 269.6582 15.06369027110305","FILE":"3825529","COUNTRY_CODE":"US","OBJECT_TYPE":"PAYLOAD","APOAPSIS":"548.144","ECCENTRICITY":"0.00012070","RA_OF_ASC_NODE":"158.7003","BSTAR":"0.00007562700000","LAUNCH_DATE":"2021-03-04","REF_FRAME":"TEME","REV_AT_EPOCH":"11030","NORAD_CAT_ID":"47778","EPHEMERIS_TYPE":"0","PERIOD":"95.594","OBJECT_NAME":"STARLINK-2211","CENTER_NAME":"EARTH","MEAN_MOTION":"15.06369027","SEMIMAJOR_AXIS":"6925.443","CLASSIFICATION_TYPE":"U","GP_ID":"226471839","TLE_LINE1":"1 47778U 21017BJ  23053.77714892  .00000844  00000-0  75627-4 0  9999","ARG_OF_PERICENTER":"90.4545","INCLINATION":"53.0531","OBJECT_ID":"2021-017BJ","MEAN_ELEMENT_THEORY":"SGP4","MEAN_MOTION_DDOT":"0.0000000000000","DECAY_DATE":null},{"PERIAPSIS":"503.143","MEAN_ANOMALY":"1.6134","ELEMENT_SET_NO":"999","RCS_SIZE":"LARGE","SITE":"AFETR","MEAN_MOTION_DOT":"0.00059342","TIME_SYSTEM":"UTC","TLE_LINE2":"2 47779  53.0491 135.5415 0004193 358.4847   1.6134 15.19938024109971","EPOCH":"2023-02-22T12:58:01.881120","FILE":"3824518","OBJECT_TYPE":"PAYLOAD","COUNTRY_CODE":"US","APOAPSIS":"508.916","ECCENTRICITY":"0.00041930","RA_OF_ASC_NODE":"135.5415","BSTAR":"0.00271800000000","LAUNCH_DATE":"2021-03-04","REF_FRAME":"TEME","EPHEMERIS_TYPE":"0","NORAD_CAT_ID":"47779","REV_AT_EPOCH":"10997","PERIOD":"94.741","OBJECT_NAME":"STARLINK-2212","CENTER_NAME":"EARTH","SEMIMAJOR_AXIS":"6884.165","GP_ID":"226432853","CLASSIFICATION_TYPE":"U","MEAN_MOTION":"15.19938024","ARG_OF_PERICENTER":"358.4847","TLE_LINE1":"1 47779U 21017BK  23053.54029955  .00059342  00000-0  27180-2 0  9990","INCLINATION":"53.0491","MEAN_MOTION_DDOT":"0.0000000000000","OBJECT_ID":"2021-017BK","MEAN_ELEMENT_THEORY":"SGP4","DECAY_DATE":null},{"TIME_SYSTEM":"UTC","EPOCH":"2023-02-22T19:16:15.362112","TLE_LINE2":"2 47780  53.0515 158.5833 0001017 119.4891 240.6199 15.06364292110340","MEAN_ANOMALY":"240.6199","PERIAPSIS":"546.619","SITE":"AFETR","MEAN_MOTION_DOT":"0.00023955","RCS_SIZE":"LARGE","ELEMENT_SET_NO":"999","ECCENTRICITY":"0.00010170","BSTAR":"0.00162320000000","RA_OF_ASC_NODE":"158.5833","FILE":"3825529","APOAPSIS":"548.027","OBJECT_TYPE":"PAYLOAD","COUNTRY_CODE":"US","CENTER_NAME":"EARTH","OBJECT_NAME":"STARLINK-2213","PERIOD":"95.594","MEAN_MOTION":"15.06364292","GP_ID":"226473341","CLASSIFICATION_TYPE":"U","SEMIMAJOR_AXIS":"6925.458","LAUNCH_DATE":"2021-03-04","REF_FRAME":"TEME","NORAD_CAT_ID":"47780","REV_AT_EPOCH":"11034","EPHEMERIS_TYPE":"0","MEAN_ELEMENT_THEORY":"SGP4","OBJECT_ID":"2021-017BL","MEAN_MOTION_DDOT":"0.0000000000000","DECAY_DATE":null,"ARG_OF_PERICENTER":"119.4891","TLE_LINE1":"1 47780U 21017BL  23053.80295558  .00023955  00000-0  16232-2 0  9992","INCLINATION":"53.0515"},{"BSTAR":"-0.00008366100000","RA_OF_ASC_NODE":"159.0291","ECCENTRICITY":"0.00014940","APOAPSIS":"548.355","COUNTRY_CODE":"US","OBJECT_TYPE":"PAYLOAD","FILE":"3825529","TLE_LINE2":"2 47781  53.0543 159.0291 0001494  81.5019 278.6139 15.06365228110284","EPOCH":"2023-02-22T16:52:57.542592","TIME_SYSTEM":"UTC","ELEMENT_SET_NO":"999","SITE":"AFETR","RCS_SIZE":"LARGE","MEAN_MOTION_DOT":"-0.00001526","PERIAPSIS":"546.285","MEAN_ANOMALY":"278.6139","DECAY_DATE":null,"MEAN_MOTION_DDOT":"0.0000000000000","MEAN_ELEMENT_THEORY":"SGP4","OBJECT_ID":"2021-017BM","INCLINATION":"53.0543","ARG_OF_PERICENTER":"81.5019","TLE_LINE1":"1 47781U 21017BM  23053.70344378 -.00001526  00000-0 -83661-4 0  9991","GP_ID":"226473566","CLASSIFICATION_TYPE":"U","SEMIMAJOR_AXIS":"6925.455","MEAN_MOTION":"15.06365228","CENTER_NAME":"EARTH","PERIOD":"95.594","OBJECT_NAME":"STARLINK-2223","EPHEMERIS_TYPE":"0","REV_AT_EPOCH":"11028","NORAD_CAT_ID":"47781","REF_FRAME":"TEME","LAUNCH_DATE":"2021-03-04"},{"MEAN_ELEMENT_THEORY":"SGP4","OBJECT_ID":"2021-018A","MEAN_MOTION_DDOT":"0.0000000000000","DECAY_DATE":null,"TLE_LINE1":"1 47787U 21018A   23053.78819113 -.00000822  00000-0 -36365-4 0  9997","ARG_OF_PERICENTER":"115.0129","INCLINATION":"53.0532","CENTER_NAME":"EARTH","PERIOD":"95.594","OBJECT_NAME":"STARLINK-2257","MEAN_MOTION":"15.06373168","GP_ID":"226472340","CLASSIFICATION_TYPE":"U","SEMIMAJOR_AXIS":"6925.431","LAUNCH_DATE":"2021-03-11","REF_FRAME":"TEME","NORAD_CAT_ID":"47787","REV_AT_EPOCH":"10915","EPHEMERIS_TYPE":"0","ECCENTRICITY":"0.00008240","BSTAR":"-0.00003636500000","RA_OF_ASC_NODE":"198.6484","FILE":"3825529","APOAPSIS":"547.866","OBJECT_TYPE":"PAYLOAD","COUNTRY_CODE":"US","TIME_SYSTEM":"UTC","EPOCH":"2023-02-22T18:54:59.713632","TLE_LINE2":"2 47787  53.0532 198.6484 0000824 115.0129 245.0945 15.06373168109151","MEAN_ANOMALY":"245.0945","PERIAPSIS":"546.725","SITE":"AFETR","RCS_SIZE":"LARGE","MEAN_MOTION_DOT":"-0.00000822","ELEMENT_SET_NO":"999"},{"MEAN_ANOMALY":"258.9846","PERIAPSIS":"546.184","RCS_SIZE":"LARGE","SITE":"AFETR","MEAN_MOTION_DOT":"0.00002737","ELEMENT_SET_NO":"999","TIME_SYSTEM":"UTC","EPOCH":"2023-02-22T19:11:36.538080","TLE_LINE2":"2 47788  53.0520 173.5973 0001620 101.1325 258.9846 15.06369966109528","FILE":"3825529","OBJECT_TYPE":"PAYLOAD","COUNTRY_CODE":"US","APOAPSIS":"548.428","ECCENTRICITY":"0.00016200","RA_OF_ASC_NODE":"173.5973","BSTAR":"0.00020273000000","LAUNCH_DATE":"2021-03-11","REF_FRAME":"TEME","REV_AT_EPOCH":"10952","NORAD_CAT_ID":"47788","EPHEMERIS_TYPE":"0","PERIOD":"95.594","OBJECT_NAME":"STARLINK-2314","CENTER_NAME":"EARTH","MEAN_MOTION":"15.06369966","SEMIMAJOR_AXIS":"6925.441","CLASSIFICATION_TYPE":"U","GP_ID":"226472590","TLE_LINE1":"1 47788U 21018B   23053.79972845  .00002737  00000-0  20273-3 0  9996","ARG_OF_PERICENTER":"101.1325","INCLINATION":"53.0520","OBJECT_ID":"2021-018B","MEAN_ELEMENT_THEORY":"SGP4","MEAN_MOTION_DDOT":"0.0000000000000","DECAY_DATE":null},{"APOAPSIS":"548.323","OBJECT_TYPE":"PAYLOAD","COUNTRY_CODE":"US","FILE":"3825529","BSTAR":"-0.00033995000000","RA_OF_ASC_NODE":"178.9724","ECCENTRICITY":"0.00014590","RCS_SIZE":"LARGE","SITE":"AFETR","MEAN_MOTION_DOT":"-0.00005337","ELEMENT_SET_NO":"999","MEAN_ANOMALY":"266.0778","PERIAPSIS":"546.302","EPOCH":"2023-02-22T17:11:32.076672","TLE_LINE2":"2 47789  53.0533 178.9724 0001459  94.0378 266.0778 15.06367776109435","TIME_SYSTEM":"UTC","INCLINATION":"53.0533","ARG_OF_PERICENTER":"94.0378","TLE_LINE1":"1 47789U 21018C   23053.71634348 -.00005337  00000-0 -33995-3 0  9998","DECAY_DATE":null,"MEAN_ELEMENT_THEORY":"SGP4","OBJECT_ID":"2021-018C","MEAN_MOTION_DDOT":"0.0000000000000","NORAD_CAT_ID":"47789","REV_AT_EPOCH":"10943","EPHEMERIS_TYPE":"0","REF_FRAME":"TEME","LAUNCH_DATE":"2021-03-11","MEAN_MOTION":"15.06367776","CLASSIFICATION_TYPE":"U","GP_ID":"226472841","SEMIMAJOR_AXIS":"6925.447","CENTER_NAME":"EARTH","PERIOD":"95.594","OBJECT_NAME":"STARLINK-2315"},{"MEAN_ANOMALY":"266.5167","PERIAPSIS":"546.325","SITE":"AFETR","RCS_SIZE":"LARGE","MEAN_MOTION_DOT":"0.00026832","ELEMENT_SET_NO":"999","TIME_SYSTEM":"UTC","EPOCH":"2023-02-22T19:46:47.160480","TLE_LINE2":"2 47790  53.0520 168.4888 0001419  93.5985 266.5167 15.06369275109592","FILE":"3825529","OBJECT_TYPE":"PAYLOAD","COUNTRY_CODE":"US","APOAPSIS":"548.290","ECCENTRICITY":"0.00014190","RA_OF_ASC_NODE":"168.4888","BSTAR":"0.00181490000000","LAUNCH_DATE":"2021-03-11","REF_FRAME":"TEME","NORAD_CAT_ID":"47790","REV_AT_EPOCH":"10959","EPHEMERIS_TYPE":"0","PERIOD":"95.594","OBJECT_NAME":"STARLINK-2319","CENTER_NAME":"EARTH","MEAN_MOTION":"15.06369275","SEMIMAJOR_AXIS":"6925.443","CLASSIFICATION_TYPE":"U","GP_ID":"226473066","TLE_LINE1":"1 47790U 21018D   23053.82415695  .00026832  00000-0  18149-2 0  9998","ARG_OF_PERICENTER":"93.5985","INCLINATION":"53.0520","OBJECT_ID":"2021-018D","MEAN_ELEMENT_THEORY":"SGP4","MEAN_MOTION_DDOT":"0.0000000000000","DECAY_DATE":null},{"APOAPSIS":"547.873","OBJECT_TYPE":"PAYLOAD","COUNTRY_CODE":"US","FILE":"3825529","BSTAR":"-0.00014102000000","RA_OF_ASC_NODE":"198.6897","ECCENTRICITY":"0.00007990","SITE":"AFETR","RCS_SIZE":"LARGE","MEAN_MOTION_DOT":"-0.00002379","ELEMENT_SET_NO":"999","MEAN_ANOMALY":"265.0418","PERIAPSIS":"546.767","EPOCH":"2023-02-22T18:39:04.568544","TLE_LINE2":"2 47791  53.0549 198.6897 0000799  95.0662 265.0418 15.06365226109166","TIME_SYSTEM":"UTC","INCLINATION":"53.0549","TLE_LINE1":"1 47791U 21018E   23053.77713621 -.00002379  00000-0 -14102-3 0  9991","ARG_OF_PERICENTER":"95.0662","DECAY_DATE":null,"MEAN_ELEMENT_THEORY":"SGP4","OBJECT_ID":"2021-018E","MEAN_MOTION_DDOT":"0.0000000000000","NORAD_CAT_ID":"47791","REV_AT_EPOCH":"10916","EPHEMERIS_TYPE":"0","REF_FRAME":"TEME","LAUNCH_DATE":"2021-03-11","MEAN_MOTION":"15.06365226","CLASSIFICATION_TYPE":"U","GP_ID":"226471840","SEMIMAJOR_AXIS":"6925.455","CENTER_NAME":"EARTH","OBJECT_NAME":"STARLINK-2322","PERIOD":"95.594"}];
